QIANFAN-1               
1 60379U 24140A   25287.29292172  .00000052  00000+0  62502-4 0  9999
2 60379  88.9741 305.4469 0018507  32.8782 327.3516 13.50976139 59326
QIANFAN-2               
1 60380U 24140B   25287.24763620  .00000051  00000+0  59827-4 0  9992
2 60380  88.9729 305.2990 0012860   8.8656 351.2720 13.50968284 59370
QIANFAN-3               
1 60381U 24140C   25287.32998715  .00000039  00000+0  41446-4 0  9991
2 60381  88.9721 305.4275 0014429  20.0498 340.1217 13.50968202 59293
QIANFAN-4               
1 60382U 24140D   25287.30527052  .00000052  00000+0  61554-4 0  9999
2 60382  88.9745 305.3129 0013174  11.0846 349.0592 13.50975197 59419
QIANFAN-5               
1 60383U 24140E   25287.35467519  .00000050  00000+0  59335-4 0  9998
2 60383  88.9721 305.4506 0016075  29.9537 330.2531 13.50971577 59280
QIANFAN-6               
1 60384U 24140F   25287.30121986  .00000050  00000+0  59453-4 0  9990
2 60384  88.9747 305.1864 0013509  16.7291 343.4303 13.50972859 59471
QIANFAN-7               
1 60385U 24140G   25287.30640334  .00000329  00000+0  12781-3 0  9995
2 60385  88.9754 300.7168 0013121 230.4940 129.5095 14.27576594 61918
QIANFAN-8               
1 60386U 24140H   25287.30939773  .00000049  00000+0  57835-4 0  9993
2 60386  88.9749 305.4221 0017014  17.0256 343.1462 13.50970962 59325
